[{"OBJECT_NAME":"STARLINK-3652","OBJECT_ID":"2022-025AM","EPOCH":"2026-03-09T07:20:56.537952","MEAN_MOTION":15.08838626,"ECCENTRICITY":0.00013465,"INCLINATION":53.2189,"RA_OF_ASC_NODE":40.8422,"ARG_OF_PERICENTER":87.0792,"MEAN_ANOMALY":273.0354,"EPHEMERIS_TYPE":0,"CLASSIFICATION_TYPE":"U","NORAD_CAT_ID":51991,"ELEMENT_SET_NO":999,"REV_AT_EPOCH":22100,"BSTAR":4.4495202e-5,"MEAN_MOTION_DOT":4.2e-6,"MEAN_MOTION_DDOT":0},{"OBJECT_NAME":"DMSP 5D-2 F13 DEB","OBJECT_ID":"1995-015BF","EPOCH":"2026-03-08T19:32:26.019456","MEAN_MOTION":15.08152744,"ECCENTRICITY":0.00224007,"INCLINATION":98.6145,"RA_OF_ASC_NODE":204.4302,"ARG_OF_PERICENTER":265.1662,"MEAN_ANOMALY":94.7005,"EPHEMERIS_TYPE":0,"CLASSIFICATION_TYPE":"U","NORAD_CAT_ID":40463,"ELEMENT_SET_NO":999,"REV_AT_EPOCH":57796,"BSTAR":0.0090845916,"MEAN_MOTION_DOT":0.00143794,"MEAN_MOTION_DDOT":0}]
